0 FENGYUN 1C DEB
1 31155U 99025BHH 13281.45627238  .00001383  00000-0  10140-2 0  9287
2 31155 099.2415 267.6732 0113417 338.2537 175.6569 13.94566019334438
0 FENGYUN 1C DEB
1 31155U 99025BHH 13283.46509184  .00001584  00000-0  11565-2 0  9295
2 31155 099.2415 269.6845 0113270 332.8233 180.8065 13.94575444334717
0 FENGYUN 1C DEB
1 31155U 99025BHH 13285.46849578  .00001608  00000-0  11734-2 0  9308
2 31155 099.2417 271.6907 0113093 327.4222 158.8100 13.94581333334991
0 FENGYUN 1C DEB
1 31155U 99025BHH 13287.48479395  .00001795  00000-0  13065-2 0  9315
2 31155 099.2417 273.7095 0112983 321.9257 201.6552 13.94589017335273
0 FENGYUN 1C DEB
1 31155U 99025BHH 13289.68651686  .00001843  00000-0  13401-2 0  9323
2 31155 099.2421 275.9137 0112918 315.8818 095.5401 13.94601269335583
0 FENGYUN 1C DEB
1 31155U 99025BHH 13292.63116395  .00001797  00000-0  13078-2 0  9334
2 31155 099.2428 278.8618 0112760 307.8209 119.4323 13.94612032335990
0 FENGYUN 1C DEB
1 31155U 99025BHH 13294.63672681  .00002184  00000-0  15819-2 0  9348
2 31155 099.2428 280.8693 0112748 302.3691 108.5952 13.94619086336272
